{"type":"FeatureCollection", "features": [
{"type":"Feature","geometry":{"type":"Polygon","coordinates":[[[-85.606675,34.984749],[-88.202745,34.995703],[-88.098683,34.891641],[-88.471115,31.895754],[-88.394438,30.367688],[-87.518128,30.280057],[-87.600282,30.997536],[-85.004212,31.003013],[-85.184951,32.859696],[-85.606675,34.984749]]]},"properties":{"name":"Alabama"}},
{"type":"Feature","geometry":{"type":"MultiPolygon","coordinates":[[[[-133.595627,56.350293],[-133.157472,54.95915],[-132.029222,55.276813],[-133.162949,56.317431],[-133.595627,56.350293]]],[[[-134.712923,58.223407],[-134.499322,57.029434],[-133.869474,57.363527],[-134.187137,58.081006],[-134.712923,58.223407]]],[[[-136.279328,58.206976],[-135.890465,57.407343],[-134.822462,57.500451],[-134.91557,57.976944],[-136.279328,58.206976]]],[[[-147.786379,70.245291],[-149.462323,70.519138],[-151.187559,70.382214],[-152.26104,70.842277],[-154.183446,70.7656],[-155.032372,71.148986],[-156.812377,71.285909],[-158.033735,70.831323],[-159.649432,70.792985],[-161.396576,70.239814],[-161.851162,70.311014],[-162.842489,69.812613],[-163.110859,69.374457],[-164.255539,68.930825],[-166.216284,68.881533],[-166.243668,68.246208],[-164.009077,67.534205],[-163.740707,67.128912],[-161.851162,67.052235],[-161.840208,66.02257],[-163.768091,66.060908],[-164.403417,66.581218],[-165.88219,66.312848],[-167.541703,65.819923],[-167.47598,65.414629],[-166.188899,64.576658],[-165.000403,64.434257],[-162.541257,64.532842],[-161.144637,64.921705],[-160.766728,63.771547],[-161.13916,63.503177],[-162.272887,63.486746],[-163.039658,63.059545],[-164.633448,63.097884],[-166.106745,61.49314],[-165.268773,60.578491],[-164.162431,59.866489],[-162.234548,60.091043],[-161.752577,58.552023],[-160.317619,59.072332],[-158.767645,58.864209],[-157.458656,58.497254],[-157.995396,57.41282],[-160.558604,55.994292],[-161.807347,55.89023],[-161.686854,55.408259],[-160.536697,55.473983],[-159.813741,55.857368],[-158.510229,55.977861],[-157.376502,56.859649],[-156.549484,56.985618],[-156.34136,57.418296],[-154.145107,58.212453],[-154.117723,59.368087],[-152.704672,59.915781],[-152.080301,60.693507],[-150.711066,61.252155],[-151.8667,59.778858],[-151.592853,59.159963],[-149.741647,59.729565],[-149.418508,59.997935],[-147.983549,59.997935],[-148.032842,60.781138],[-146.866253,60.972831],[-146.252836,60.622307],[-143.892275,59.997935],[-141.964392,60.019843],[-140.315833,59.696704],[-138.11958,59.02304],[-136.59699,58.212453],[-135.430402,58.398669],[-134.143321,58.168637],[-133.51895,57.177311],[-132.450946,56.673433],[-132.719317,56.218847],[-132.182576,55.588998],[-130.983126,55.08512],[-129.986323,55.276813],[-130.101339,56.114785],[-131.580113,56.613186],[-133.842089,58.727285],[-135.479694,59.800766],[-136.580559,59.16544],[-137.604747,59.242118],[-139.696939,60.342983],[-141.00045,60.304644],[-141.00045,69.648304],[-142.747594,70.042644],[-144.620708,69.971444],[-145.858496,70.168614],[-147.786379,70.245291]]],[[[-153.958891,57.538789],[-152.912796,57.128019],[-152.721103,57.993375],[-153.958891,57.538789]]],[[[-171.742517,63.716778],[-169.639372,62.939052],[-169.518879,63.366254],[-170.488297,63.69487],[-171.742517,63.716778]]]]},"properties":{"name":"Alaska"}},
{"type":"Feature","geometry":{"type":"Polygon","coordinates":[[[-109.042503,37.000263],[-114.048427,37.000263],[-114.048427,36.195153],[-114.738521,36.102045],[-114.634459,35.00118],[-114.136058,34.305608],[-114.535874,33.933176],[-114.72209,32.717295],[-114.815198,32.492741],[-111.074448,31.331629],[-109.04798,31.331629],[-109.042503,37.000263]]]},"properties":{"name":"Arizona"}},
{"type":"Feature","geometry":{"type":"Polygon","coordinates":[[[-89.730812,35.997983],[-90.152536,36.496384],[-94.616242,36.501861],[-94.430026,35.395519],[-94.484796,33.637421],[-94.041164,33.018527],[-91.16577,33.002096],[-91.231493,33.560744],[-90.311367,34.995703],[-89.730812,35.997983]]]},"properties":{"name":"Arkansas"}},
{"type":"Feature","geometry":{"type":"Polygon","coordinates":[[[-120.001861,41.995232],[-124.213628,42.000709],[-124.065751,41.442061],[-124.361506,40.259042],[-123.85215,39.831841],[-123.737134,38.95553],[-122.504823,37.931343],[-121.896882,36.315645],[-120.631709,35.099764],[-120.472878,34.448009],[-119.558229,34.415147],[-118.566903,34.042715],[-117.329114,33.122589],[-117.126467,32.536556],[-114.72209,32.717295],[-114.535874,33.933176],[-114.136058,34.305608],[-114.634459,35.00118],[-117.498899,37.21934],[-120.001861,38.999346],[-120.001861,41.995232]]]},"properties":{"name":"California"}},
{"type":"Feature","geometry":{"type":"Polygon","coordinates":[[[-104.053011,41.003906],[-109.04798,40.998429],[-109.042503,37.000263],[-103.001438,37.000263],[-102.042974,36.994786],[-102.053927,40.001626],[-102.053927,41.003906],[-104.053011,41.003906]]]},"properties":{"name":"Colorado"}},
{"type":"Feature","geometry":{"type":"Polygon","coordinates":[[[-71.799309,42.006186],[-73.486206,42.050002],[-73.655992,40.987475],[-72.905651,41.28323],[-71.859555,41.321569],[-71.799309,42.006186]]]},"properties":{"name":"Connecticut"}},
{"type":"Feature","geometry":{"type":"Polygon","coordinates":[[[-75.414089,39.804456],[-75.786521,39.722302],[-75.693413,38.462606],[-75.047134,38.451652],[-75.507197,39.683964],[-75.414089,39.804456]]]},"properties":{"name":"Delaware"}},
{"type":"Feature","geometry":{"type":"Polygon","coordinates":[[[-77.040741,38.791222],[-76.909294,38.895284],[-77.035264,38.993869],[-77.117418,38.933623],[-77.040741,38.791222]]]},"properties":{"name":"District of Columbia"}},
{"type":"Feature","geometry":{"type":"Polygon","coordinates":[[[-85.004212,31.003013],[-87.600282,30.997536],[-87.518128,30.280057],[-86.630863,30.395073],[-84.867289,29.743317],[-84.02384,30.104795],[-82.643651,28.888914],[-82.692943,27.437525],[-81.351093,25.821827],[-81.077246,25.120779],[-80.146166,25.739673],[-80.091397,27.021277],[-80.524075,28.461713],[-81.257985,29.787132],[-81.444201,30.707258],[-82.216449,30.570335],[-84.867289,30.712735],[-85.004212,31.003013]]]},"properties":{"name":"Florida"}},
{"type":"Feature","geometry":{"type":"Polygon","coordinates":[[[-83.109191,35.00118],[-84.319594,34.990226],[-85.606675,34.984749],[-85.184951,32.859696],[-85.004212,31.003013],[-84.867289,30.712735],[-82.216449,30.570335],[-81.444201,30.707258],[-80.885553,32.032678],[-81.493493,33.007573],[-82.55602,33.94413],[-83.109191,35.00118]]]},"properties":{"name":"Georgia"}},
{"type":"Feature","geometry":{"type":"Polygon","coordinates":[[[-155.634835,18.948267],[-154.807817,19.523346],[-155.284311,20.021748],[-156.062036,19.73147],[-155.634835,18.948267]]]},"properties":{"name":"Hawaii"}},
{"type":"Feature","geometry":{"type":"Polygon","coordinates":[[[-116.04751,49.000239],[-117.033359,49.000239],[-117.038836,46.426077],[-116.918344,45.993399],[-116.463758,45.61549],[-117.241483,44.394132],[-117.027882,43.830007],[-117.027882,42.000709],[-114.04295,41.995232],[-111.047063,42.000709],[-111.047063,44.476286],[-113.002331,44.448902],[-113.98818,45.703121],[-114.568736,45.774321],[-114.322274,46.645155],[-115.718894,47.42288],[-116.04751,47.976051],[-116.04751,49.000239]]]},"properties":{"name":"Idaho"}},
{"type":"Feature","geometry":{"type":"Polygon","coordinates":[[[-90.639984,42.510065],[-90.344229,41.589939],[-91.417709,40.379535],[-91.368417,39.727779],[-90.10872,38.845992],[-90.355183,38.216144],[-89.517211,37.690357],[-89.133825,36.983832],[-88.027483,37.799896],[-87.49622,38.780268],[-87.523605,41.710431],[-87.802929,42.493634],[-90.639984,42.510065]]]},"properties":{"name":"Illinois"}},
{"type":"Feature","geometry":{"type":"Polygon","coordinates":[[[-84.807042,41.694001],[-86.822556,41.759724],[-87.523605,41.710431],[-87.49622,38.780268],[-88.027483,37.799896],[-87.129265,37.788942],[-85.83123,38.27639],[-84.817996,39.103408],[-84.807042,41.694001]]]},"properties":{"name":"Indiana"}},
{"type":"Feature","geometry":{"type":"Polygon","coordinates":[[[-91.215062,43.501391],[-96.451017,43.501391],[-96.44554,42.488157],[-95.919754,41.453015],[-95.7664,40.587659],[-91.729895,40.615043],[-91.417709,40.379535],[-90.344229,41.589939],[-90.639984,42.510065],[-91.215062,43.501391]]]},"properties":{"name":"Iowa"}},
{"type":"Feature","geometry":{"type":"Polygon","coordinates":[[[-95.306337,40.001626],[-102.053927,40.001626],[-102.042974,36.994786],[-94.616242,37.000263],[-94.610765,39.158177],[-95.306337,40.001626]]]},"properties":{"name":"Kansas"}},
{"type":"Feature","geometry":{"type":"Polygon","coordinates":[[[-82.594358,38.424267],[-84.817996,39.103408],[-85.83123,38.27639],[-87.129265,37.788942],[-88.027483,37.799896],[-89.133825,36.983832],[-89.418626,36.496384],[-87.852221,36.633308],[-83.673316,36.600446],[-81.969987,37.537003],[-82.594358,38.424267]]]},"properties":{"name":"Kentucky"}},
{"type":"Feature","geometry":{"type":"Polygon","coordinates":[[[-91.16577,33.002096],[-94.041164,33.018527],[-94.041164,31.994339],[-93.542762,31.15089],[-93.838517,29.688547],[-92.31045,29.535193],[-91.620356,29.73784],[-90.798815,29.086084],[-90.032043,29.425654],[-89.522688,30.181472],[-89.747242,30.997536],[-91.636787,30.997536],[-90.985031,32.218894],[-91.16577,33.002096]]]},"properties":{"name":"Louisiana"}},
{"type":"Feature","geometry":{"type":"Polygon","coordinates":[[[-70.703921,43.057759],[-70.254812,43.676653],[-69.258008,43.923115],[-68.956777,44.322932],[-68.047605,44.328409],[-66.979601,44.804903],[-67.801142,45.675736],[-67.790188,47.066879],[-69.225147,47.461219],[-69.997395,46.694447],[-70.260289,45.889337],[-71.08183,45.303304],[-70.966814,43.34256],[-70.703921,43.057759]]]},"properties":{"name":"Maine"}},
{"type":"Feature","geometry":{"type":"Polygon","coordinates":[[[-79.477979,39.722302],[-79.488933,39.20747],[-78.174467,39.694917],[-77.719881,39.322485],[-77.117418,38.933623],[-77.035264,38.993869],[-76.909294,38.895284],[-77.040741,38.791222],[-77.128372,38.632391],[-75.671506,37.95325],[-75.244304,38.029928],[-75.047134,38.451652],[-75.693413,38.462606],[-75.786521,39.722302],[-79.477979,39.722302]]]},"properties":{"name":"Maryland"}},
{"type":"Feature","geometry":{"type":"Polygon","coordinates":[[[-70.818936,42.871543],[-72.456542,42.729142],[-73.267129,42.745573],[-73.486206,42.050002],[-71.799309,42.006186],[-71.22423,41.710431],[-71.196845,41.67757],[-71.120168,41.496831],[-70.539613,41.814493],[-70.818936,42.871543]]]},"properties":{"name":"Massachusetts"}},
{"type":"Feature","geometry":{"type":"MultiPolygon","coordinates":[[[[-83.454238,41.732339],[-82.413619,42.975605],[-82.643651,43.851915],[-83.262545,43.972408],[-83.4871,45.358074],[-84.938489,45.75789],[-85.031597,45.363551],[-86.252954,44.689887],[-86.526801,43.594499],[-86.231047,43.013943],[-86.822556,41.759724],[-84.807042,41.694001],[-83.454238,41.732339]]],[[[-87.589328,45.095181],[-87.17308,45.659305],[-85.502614,46.097461],[-83.990978,46.031737],[-84.127902,46.530139],[-85.064458,46.760171],[-86.696587,46.437031],[-88.443731,46.973771],[-90.415429,46.568478],[-90.119674,46.338446],[-88.10416,45.922199],[-87.589328,45.095181]]]]},"properties":{"name":"Michigan"}},
{"type":"Feature","geometry":{"type":"Polygon","coordinates":[[[-92.014696,46.705401],[-90.141582,48.112975],[-91.565587,48.041775],[-93.208669,48.644238],[-93.794701,48.518268],[-95.152983,49.000239],[-97.228743,49.000239],[-96.560556,45.933153],[-96.451017,43.501391],[-91.215062,43.501391],[-91.927065,44.333886],[-92.808852,44.750133],[-92.869098,45.719552],[-92.014696,46.705401]]]},"properties":{"name":"Minnesota"}},
{"type":"Feature","geometry":{"type":"Polygon","coordinates":[[[-88.202745,34.995703],[-90.311367,34.995703],[-91.231493,33.560744],[-91.16577,33.002096],[-90.985031,32.218894],[-91.636787,30.997536],[-89.747242,30.997536],[-89.522688,30.181472],[-88.394438,30.367688],[-88.471115,31.895754],[-88.098683,34.891641],[-88.202745,34.995703]]]},"properties":{"name":"Mississippi"}},
{"type":"Feature","geometry":{"type":"Polygon","coordinates":[[[-91.417709,40.379535],[-91.729895,40.615043],[-95.7664,40.587659],[-95.306337,40.001626],[-94.610765,39.158177],[-94.616242,37.000263],[-94.616242,36.501861],[-90.152536,36.496384],[-89.730812,35.997983],[-89.418626,36.496384],[-89.133825,36.983832],[-89.517211,37.690357],[-90.355183,38.216144],[-90.10872,38.845992],[-91.368417,39.727779],[-91.417709,40.379535]]]},"properties":{"name":"Missouri"}},
{"type":"Feature","geometry":{"type":"Polygon","coordinates":[[[-104.047534,49.000239],[-116.04751,49.000239],[-116.04751,47.976051],[-115.718894,47.42288],[-114.322274,46.645155],[-114.568736,45.774321],[-113.98818,45.703121],[-113.002331,44.448902],[-111.047063,44.476286],[-111.05254,45.002073],[-104.058488,44.996596],[-104.047534,45.944106],[-104.047534,49.000239]]]},"properties":{"name":"Montana"}},
{"type":"Feature","geometry":{"type":"Polygon","coordinates":[[[-96.44554,42.488157],[-97.217789,42.844158],[-98.499393,42.997512],[-104.053011,43.002989],[-104.053011,41.003906],[-102.053927,41.003906],[-102.053927,40.001626],[-95.306337,40.001626],[-95.7664,40.587659],[-95.919754,41.453015],[-96.44554,42.488157]]]},"properties":{"name":"Nebraska"}},
{"type":"Feature","geometry":{"type":"Polygon","coordinates":[[[-117.027882,42.000709],[-120.001861,41.995232],[-120.001861,38.999346],[-117.498899,37.21934],[-114.634459,35.00118],[-114.738521,36.102045],[-114.048427,36.195153],[-114.048427,37.000263],[-114.04295,41.995232],[-117.027882,42.000709]]]},"properties":{"name":"Nevada"}},
{"type":"Feature","geometry":{"type":"Polygon","coordinates":[[[-71.08183,45.303304],[-71.503554,45.013027],[-72.379864,43.572591],[-72.456542,42.729142],[-70.818936,42.871543],[-70.703921,43.057759],[-70.966814,43.34256],[-71.08183,45.303304]]]},"properties":{"name":"New Hampshire"}},
{"type":"Feature","geometry":{"type":"Polygon","coordinates":[[[-74.022947,40.708151],[-74.69661,41.359907],[-75.205966,40.691721],[-75.414089,39.804456],[-75.507197,39.683964],[-74.888303,39.158177],[-74.099624,39.760641],[-74.022947,40.708151]]]},"properties":{"name":"New Jersey"}},
{"type":"Feature","geometry":{"type":"Polygon","coordinates":[[[-103.001438,37.000263],[-109.042503,37.000263],[-109.04798,31.331629],[-108.210008,31.786216],[-106.528588,31.786216],[-106.616219,31.999816],[-103.067161,31.999816],[-103.001438,36.501861],[-103.001438,37.000263]]]},"properties":{"name":"New Mexico"}},
{"type":"Feature","geometry":{"type":"Polygon","coordinates":[[[-73.343806,45.013027],[-74.828057,45.018503],[-75.912491,44.366748],[-76.235631,43.528776],[-76.958587,43.271359],[-78.486653,43.375421],[-78.853608,42.783912],[-79.76278,42.269079],[-79.76278,42.000709],[-75.35932,42.000709],[-74.69661,41.359907],[-74.022947,40.708151],[-73.655992,40.987475],[-73.486206,42.050002],[-73.267129,42.745573],[-73.436914,44.043608],[-73.343806,45.013027]]]},"properties":{"name":"New York"}},
{"type":"Feature","geometry":{"type":"Polygon","coordinates":[[[-75.868676,36.551154],[-81.679709,36.589492],[-81.723525,36.353984],[-84.29221,35.225734],[-84.319594,34.990226],[-83.109191,35.00118],[-82.276696,35.198349],[-81.044384,35.149057],[-80.797922,34.820441],[-79.675149,34.80401],[-78.541422,33.851022],[-77.971821,33.845545],[-77.210526,34.60684],[-76.493047,34.661609],[-75.715321,35.696751],[-75.868676,36.551154]]]},"properties":{"name":"North Carolina"}},
{"type":"Feature","geometry":{"type":"Polygon","coordinates":[[[-97.228743,49.000239],[-104.047534,49.000239],[-104.047534,45.944106],[-96.560556,45.933153],[-97.228743,49.000239]]]},"properties":{"name":"North Dakota"}},
{"type":"Feature","geometry":{"type":"Polygon","coordinates":[[[-80.518598,41.978802],[-82.479343,41.381815],[-83.454238,41.732339],[-84.807042,41.694001],[-84.817996,39.103408],[-82.594358,38.424267],[-81.685186,39.273193],[-80.830783,39.711348],[-80.518598,40.636951],[-80.518598,41.978802]]]},"properties":{"name":"Ohio"}},
{"type":"Feature","geometry":{"type":"Polygon","coordinates":[[[-94.616242,37.000263],[-102.042974,36.994786],[-103.001438,37.000263],[-103.001438,36.501861],[-100.000075,36.501861],[-100.000075,34.563024],[-99.189488,34.2125],[-97.256128,33.861976],[-95.224183,33.960561],[-94.484796,33.637421],[-94.430026,35.395519],[-94.616242,36.501861],[-94.616242,37.000263]]]},"properties":{"name":"Oklahoma"}},
{"type":"Feature","geometry":{"type":"Polygon","coordinates":[[[-116.918344,45.993399],[-118.988627,45.998876],[-121.18488,45.604536],[-122.247407,45.549767],[-123.545441,46.261769],[-123.945258,46.113892],[-124.169813,43.8081],[-124.553198,42.838681],[-124.213628,42.000709],[-120.001861,41.995232],[-117.027882,42.000709],[-117.027882,43.830007],[-117.241483,44.394132],[-116.463758,45.61549],[-116.918344,45.993399]]]},"properties":{"name":"Oregon"}},
{"type":"Feature","geometry":{"type":"Polygon","coordinates":[[[-74.69661,41.359907],[-75.35932,42.000709],[-79.76278,42.000709],[-79.76278,42.269079],[-80.518598,41.978802],[-80.518598,40.636951],[-80.518598,39.722302],[-79.477979,39.722302],[-75.786521,39.722302],[-75.414089,39.804456],[-75.205966,40.691721],[-74.69661,41.359907]]]},"properties":{"name":"Pennsylvania"}},
{"type":"Feature","geometry":{"type":"Polygon","coordinates":[[[-71.22423,41.710431],[-71.799309,42.006186],[-71.859555,41.321569],[-71.22423,41.710431]]]},"properties":{"name":"Rhode Island"}},
{"type":"Feature","geometry":{"type":"Polygon","coordinates":[[[-78.541422,33.851022],[-79.675149,34.80401],[-80.797922,34.820441],[-81.044384,35.149057],[-82.276696,35.198349],[-83.109191,35.00118],[-82.55602,33.94413],[-81.493493,33.007573],[-80.885553,32.032678],[-79.187701,33.171881],[-78.541422,33.851022]]]},"properties":{"name":"South Carolina"}},
{"type":"Feature","geometry":{"type":"Polygon","coordinates":[[[-104.047534,45.944106],[-104.058488,44.996596],[-104.053011,43.002989],[-98.499393,42.997512],[-97.217789,42.844158],[-96.44554,42.488157],[-96.451017,43.501391],[-96.560556,45.933153],[-104.047534,45.944106]]]},"properties":{"name":"South Dakota"}},
{"type":"Feature","geometry":{"type":"Polygon","coordinates":[[[-83.673316,36.600446],[-87.852221,36.633308],[-89.418626,36.496384],[-89.730812,35.997983],[-90.311367,34.995703],[-88.202745,34.995703],[-85.606675,34.984749],[-84.319594,34.990226],[-84.29221,35.225734],[-81.723525,36.353984],[-81.679709,36.589492],[-83.673316,36.600446]]]},"properties":{"name":"Tennessee"}},
{"type":"Feature","geometry":{"type":"Polygon","coordinates":[[[-94.484796,33.637421],[-95.224183,33.960561],[-97.256128,33.861976],[-99.189488,34.2125],[-100.000075,34.563024],[-100.000075,36.501861],[-103.001438,36.501861],[-103.067161,31.999816],[-106.616219,31.999816],[-106.528588,31.786216],[-105.005998,30.685351],[-104.507597,29.639255],[-103.116454,28.987499],[-102.629006,29.732363],[-101.413125,29.754271],[-100.673738,29.102515],[-100.29583,28.280974],[-99.479765,27.48134],[-99.173057,26.539307],[-98.198161,26.057336],[-97.217789,25.991613],[-97.480682,26.99937],[-97.026096,28.039988],[-95.383014,28.867006],[-94.523134,29.546147],[-93.838517,29.688547],[-93.542762,31.15089],[-94.041164,31.994339],[-94.041164,33.018527],[-94.484796,33.637421]]]},"properties":{"name":"Texas"}},
{"type":"Feature","geometry":{"type":"Polygon","coordinates":[[[-111.047063,42.000709],[-114.04295,41.995232],[-114.048427,37.000263],[-109.042503,37.000263],[-109.04798,40.998429],[-111.047063,40.998429],[-111.047063,42.000709]]]},"properties":{"name":"Utah"}},
{"type":"Feature","geometry":{"type":"Polygon","coordinates":[[[-71.503554,45.013027],[-73.343806,45.013027],[-73.436914,44.043608],[-73.267129,42.745573],[-72.456542,42.729142],[-72.379864,43.572591],[-71.503554,45.013027]]]},"properties":{"name":"Vermont"}},
{"type":"Feature","geometry":{"type":"Polygon","coordinates":[[[-77.719881,39.322485],[-78.404499,39.169131],[-79.724442,38.364021],[-80.513121,37.482234],[-81.225123,37.235771],[-81.969987,37.537003],[-83.673316,36.600446],[-81.679709,36.589492],[-75.868676,36.551154],[-76.410893,36.961924],[-76.235631,37.887527],[-77.128372,38.632391],[-77.040741,38.791222],[-77.117418,38.933623],[-77.719881,39.322485]]]},"properties":{"name":"Virginia"}},
{"type":"Feature","geometry":{"type":"Polygon","coordinates":[[[-117.033359,49.000239],[-122.756762,49.000239],[-122.362422,48.123929],[-123.983597,48.162267],[-124.597014,48.381345],[-123.874058,46.239861],[-123.545441,46.261769],[-122.247407,45.549767],[-121.18488,45.604536],[-118.988627,45.998876],[-116.918344,45.993399],[-117.038836,46.426077],[-117.033359,49.000239]]]},"properties":{"name":"Washington"}},
{"type":"Feature","geometry":{"type":"Polygon","coordinates":[[[-80.518598,40.636951],[-80.830783,39.711348],[-81.685186,39.273193],[-82.594358,38.424267],[-81.969987,37.537003],[-81.225123,37.235771],[-80.513121,37.482234],[-79.724442,38.364021],[-78.404499,39.169131],[-77.719881,39.322485],[-78.174467,39.694917],[-79.488933,39.20747],[-79.477979,39.722302],[-80.518598,39.722302],[-80.518598,40.636951]]]},"properties":{"name":"West Virginia"}},
{"type":"Feature","geometry":{"type":"Polygon","coordinates":[[[-90.415429,46.568478],[-91.09457,46.864232],[-92.014696,46.705401],[-92.869098,45.719552],[-92.808852,44.750133],[-91.927065,44.333886],[-91.215062,43.501391],[-90.639984,42.510065],[-87.802929,42.493634],[-87.912467,43.249452],[-87.468835,44.552964],[-87.589328,45.095181],[-88.10416,45.922199],[-90.119674,46.338446],[-90.415429,46.568478]]]},"properties":{"name":"Wisconsin"}},
{"type":"Feature","geometry":{"type":"Polygon","coordinates":[[[-104.058488,44.996596],[-111.05254,45.002073],[-111.047063,44.476286],[-111.047063,42.000709],[-111.047063,40.998429],[-109.04798,40.998429],[-104.053011,41.003906],[-104.053011,43.002989],[-104.058488,44.996596]]]},"properties":{"name":"Wyoming"}},
{"type":"Feature","geometry":{"type":"Polygon","coordinates":[[[-66.448338,17.984326],[-65.840398,18.433435],[-67.094617,18.515589],[-67.209633,17.956941],[-66.448338,17.984326]]]},"properties":{"name":"Puerto Rico"}}
]}